H1 CPF 01  gfz 2021 11 08 13  8122 terrasarx 
H2 0702601  6201 31698    2021 11 08 12 59 42 2021 11 13 00 00 42   120 1 1  0 0 0
H9
10 0 59529  85662.000000  0     930024.765  -4735527.171  -4923313.666
10 0 59529  85782.000000  0     832800.406  -5359872.619  -4254594.880
10 0 59529  85902.000000  0     710995.017  -5889055.052  -3511332.349
10 0 59529  86022.000000  0     568464.746  -6313361.945  -2706483.040
10 0 59529  86142.000000  0     409585.618  -6624967.203  -1854115.884
10 0 59529  86262.000000  0     239143.961  -6818088.898   -969166.977
10 0 59529  86382.000000  0      62215.996  -6889107.763    -67174.692
10 0 59530    102.000000  0    -115960.271  -6836643.527    835998.596
10 0 59530    222.000000  0    -290117.497  -6661587.735   1724452.819
10 0 59530    342.000000  0    -455092.643  -6367091.083   2582539.606
10 0 59530    462.000000  0    -605958.066  -5958504.060   3395147.869
10 0 59530    582.000000  0    -738146.025  -5443271.122   4147976.856
10 0 59530    702.000000  0    -847564.935  -4830786.462   4827790.641
10 0 59530    822.000000  0    -930703.500  -4132213.070   5422651.807
10 0 59530    942.000000  0    -984720.363  -3360269.923   5922130.180
10 0 59530   1062.000000  0   -1007517.872  -2528989.987   6317481.965
10 0 59530   1182.000000  0    -997797.504  -1653458.173   6601794.826
10 0 59530   1302.000000  0    -955097.030   -749535.251   6770102.525
10 0 59530   1422.000000  0    -879809.648    166431.224   6819467.266
10 0 59530   1542.000000  0    -773183.413   1077902.586   6749027.715
10 0 59530   1662.000000  0    -637300.162   1968447.207   6560013.297
10 0 59530   1782.000000  0    -475035.148   2822036.183   6255723.929
10 0 59530   1902.000000  0    -289998.263   3623331.985   5841476.142
10 0 59530   2022.000000  0     -86458.096   4357966.543   5324515.346
10 0 59530   2142.000000  0     130750.693   5012803.009   4713895.356
10 0 59530   2262.000000  0     356335.129   5576179.077   4020325.594
10 0 59530   2382.000000  0     584663.775   6038121.030   3255985.728
10 0 59530   2502.000000  0     809896.720   6390532.347   2434318.580
10 0 59530   2622.000000  0    1026125.023   6627348.846   1569787.920
10 0 59530   2742.000000  0    1227512.192   6744648.625    677618.525
10 0 59530   2862.000000  0    1408436.614   6740721.172   -226479.431
10 0 59530   2982.000000  0    1563630.674   6616091.770  -1126595.242
10 0 59530   3102.000000  0    1688312.336   6373501.199  -2006905.511
10 0 59530   3222.000000  0    1778306.724   6017842.178  -2851959.343
10 0 59530   3342.000000  0    1830154.500   5556053.397  -3646955.135
10 0 59530   3462.000000  0    1841204.462   4996973.663  -4378002.691
10 0 59530   3582.000000  0    1809688.133   4351160.347  -5032364.299
10 0 59530   3702.000000  0    1734774.656   3630678.968  -5598670.455
10 0 59530   3822.000000  0    1616605.920   2848869.510  -6067108.993
10 0 59530   3942.000000  0    1456310.250   2020092.965  -6429584.481
10 0 59530   4062.000000  0    1255995.867   1159465.832  -6679845.960
10 0 59530   4182.000000  0    1018724.666    282586.470  -6813585.172
10 0 59530   4302.000000  0     748465.448   -594743.727  -6828502.868
10 0 59530   4422.000000  0     450028.040  -1456799.331  -6724342.807
10 0 59530   4542.000000  0     128979.899  -2288204.648  -6502894.448
10 0 59530   4662.000000  0    -208454.215  -3074200.794  -6167967.399
10 0 59530   4782.000000  0    -555509.402  -3800905.132  -5725333.378
10 0 59530   4902.000000  0    -905011.054  -4455555.148  -5182636.052
10 0 59530   5022.000000  0   -1249517.785  -5026735.688  -4549271.053
10 0 59530   5142.000000  0   -1581475.025  -5504585.021  -3836234.368
10 0 59530   5262.000000  0   -1893375.831  -5880974.595  -3055940.560
10 0 59530   5382.000000  0   -2177925.396  -6149658.345  -2222013.396
10 0 59530   5502.000000  0   -2428205.861  -6306388.445  -1349051.452
10 0 59530   5622.000000  0   -2637837.330  -6348993.733   -452371.505
10 0 59530   5742.000000  0   -2801130.942  -6277416.818    452265.467
10 0 59530   5862.000000  0   -2913229.498  -6093708.143   1348938.855
10 0 59530   5982.000000  0   -2970232.070  -5801977.603   2221857.606
10 0 59530   6102.000000  0   -2969299.162  -5408304.010   3055647.405
10 0 59530   6222.000000  0   -2908735.465  -4920605.473   3835628.929
10 0 59530   6342.000000  0   -2788048.376  -4348474.410   4548081.419
10 0 59530   6462.000000  0   -2607981.852  -3702981.502   5180486.412
10 0 59530   6582.000000  0   -2370524.340  -2996453.047   5721747.582
10 0 59530   6702.000000  0   -2078889.777  -2242227.978   6162381.561
10 0 59530   6822.000000  0   -1737473.719  -1454401.469   6494679.211
10 0 59530   6942.000000  0   -1351784.953   -647557.444   6712835.611
10 0 59530   7062.000000  0    -928354.921    163504.281   6813043.746
10 0 59530   7182.000000  0    -474627.427    964038.062   6793556.074
10 0 59530   7302.000000  0       1172.148   1739619.937   6654713.964
10 0 59530   7422.000000  0     490185.825   2476407.339   6398942.115
10 0 59530   7542.000000  0     983087.353   3161385.891   6030708.318
10 0 59530   7662.000000  0    1470258.806   3782600.530   5556450.553
10 0 59530   7782.000000  0    1941977.131   4329367.998   4984470.481
10 0 59530   7902.000000  0    2388608.384   4792466.611   4324794.272
10 0 59530   8022.000000  0    2800804.908   5164297.986   3589000.795
10 0 59530   8142.000000  0    3169700.947   5439018.506   2790022.883
10 0 59530   8262.000000  0    3487105.239   5612641.042   1941920.000
10 0 59530   8382.000000  0    3745681.938   5683095.956   1059625.026
10 0 59530   8502.000000  0    3939115.448   5650254.555    158675.754
10 0 59530   8622.000000  0    4062257.457   5515912.639   -745067.537
10 0 59530   8742.000000  0    4111250.491   5283734.650  -1635709.303
10 0 59530   8862.000000  0    4083625.926   4959161.320  -2497606.137
10 0 59530   8982.000000  0    3978372.969   4549282.172  -3315648.177
10 0 59530   9102.000000  0    3795977.007   4062676.281  -4075527.793
10 0 59530   9222.000000  0    3538428.009   3509226.791  -4763988.863
10 0 59530   9342.000000  0    3209199.645   2899914.499  -5369054.535
10 0 59530   9462.000000  0    2813198.336   2246594.399  -5880228.492
10 0 59530   9582.000000  0    2356685.479   1561761.622  -6288667.151
10 0 59530   9702.000000  0    1847174.107    858311.213  -6587320.980
10 0 59530   9822.000000  0    1293303.895    149297.597  -6771044.111
10 0 59530   9942.000000  0     704695.387   -552303.233  -6836675.341
10 0 59530  10062.000000  0      91783.956  -1233826.779  -6783085.992
10 0 59530  10182.000000  0    -534360.626  -1883142.206  -6611195.711
10 0 59530  10302.000000  0   -1162228.718  -2488862.467  -6323959.581
10 0 59530  10422.000000  0   -1780077.716  -3040541.416  -5926323.154
10 0 59530  10542.000000  0   -2376146.492  -3528852.540  -5425145.676
10 0 59530  10662.000000  0   -2938876.075  -3945748.565  -4829094.018
10 0 59530  10782.000000  0   -3457134.042  -4284599.468  -4148504.338
10 0 59530  10902.000000  0   -3920436.057  -4540304.000  -3395212.419
10 0 59530  11022.000000  0   -4319160.881  -4709373.305  -2582355.959
10 0 59530  11142.000000  0   -4644754.263  -4789983.883  -1724149.844
10 0 59530  11262.000000  0   -4889916.152  -4781998.021   -835638.347
10 0 59530  11382.000000  0   -5048766.234  -4686950.723     67571.430
10 0 59530  11502.000000  0   -5116983.473  -4508003.191    969589.946
10 0 59530  11622.000000  0   -5091914.991  -4249862.406   1854534.013
10 0 59530  11742.000000  0   -4972650.671  -3918668.507   2706816.052
10 0 59530  11862.000000  0   -4760062.301  -3521853.656   3511426.841
10 0 59530  11982.000000  0   -4456806.672  -3067976.512   4254206.306
10 0 59530  12102.000000  0   -4067291.693  -2566535.603   4922097.065
10 0 59530  12222.000000  0   -3597607.438  -2027767.481   5503373.304
10 0 59530  12342.000000  0   -3055425.949  -1462435.873   5987843.771
10 0 59530  12462.000000  0   -2449870.453   -881614.691   6367027.522
10 0 59530  12582.000000  0   -1791355.672   -296468.333   6634297.324
10 0 59530  12702.000000  0   -1091403.675    281963.623   6784987.815
10 0 59530  12822.000000  0    -362441.025    842972.763   6816470.989
10 0 59530  12942.000000  0     382421.555   1376379.234   6728199.366
10 0 59530  13062.000000  0    1129624.314   1872716.292   6521715.158
10 0 59530  13182.000000  0    1865404.658   2323398.424   6200624.311
10 0 59530  13302.000000  0    2576049.643   2720869.918   5770537.531
10 0 59530  13422.000000  0    3248152.478   3058733.552   5238979.061
10 0 59530  13542.000000  0    3868868.899   3331856.673   4615260.709
10 0 59530  13662.000000  0    4426165.222   3536451.533   3910323.393
10 0 59530  13782.000000  0    4909058.390   3670129.791   3136551.738
10 0 59530  13902.000000  0    5307840.695   3731929.161   2307555.367
10 0 59530  14022.000000  0    5614280.161   3722309.024   1437927.513
10 0 59530  14142.000000  0    5821795.214   3643117.955    542983.110
10 0 59530  14262.000000  0    5925597.507   3497531.849   -361519.023
10 0 59530  14382.000000  0    5922798.644   3289964.353  -1259662.428
10 0 59530  14502.000000  0    5812478.853   3025952.226  -2135661.596
10 0 59530  14622.000000  0    5595715.198   2712019.228  -2974146.099
10 0 59530  14742.000000  0    5275570.529   2355522.053  -3760434.765
10 0 59530  14862.000000  0    4857043.984   1964481.750  -4480794.778
10 0 59530  14982.000000  0    4346981.854   1547404.810  -5122680.085
10 0 59530  15102.000000  0    3753954.913   1113099.706  -5674942.431
10 0 59530  15222.000000  0    3088105.859    670493.414  -6128016.124
10 0 59530  15342.000000  0    2360968.547    228450.693  -6474073.079
10 0 59530  15462.000000  0    1585264.760   -204399.439  -6707146.080
10 0 59530  15582.000000  0     774682.707   -619827.909  -6823222.313
10 0 59530  15702.000000  0     -56362.726  -1010158.217  -6820305.381
99
